ALOS-4 (DAICHI-4)       
1 60182U 24123A   24251.57399793  .00008356  00000+0  11243-2 0  9999
2 60182  97.9214 347.0505 0001521  98.5490 261.5894 14.79478007 10125
